0 FENGYUN 1C DEB
1 32110U 99025CRC 13280.70461986  .00001467  00000-0  86009-3 0  4761
2 32110 099.5611 077.0401 0039036 170.2756 248.2057 14.09570749319421
0 FENGYUN 1C DEB
1 32110U 99025CRC 13283.39628615  .00001736  00000-0  10125-2 0  4778
2 32110 099.5610 079.8970 0038998 163.0485 226.7933 14.09583578319806
0 FENGYUN 1C DEB
1 32110U 99025CRC 13285.67316324  .00001521  00000-0  89072-3 0  4783
2 32110 099.5612 082.3137 0038957 156.8909 260.6996 14.09592235320121
0 FENGYUN 1C DEB
1 32110U 99025CRC 13288.24156427  .00002033  00000-0  11807-2 0  4795
2 32110 099.5615 085.0399 0038898 149.9059 334.0665 14.09603434320489
0 FENGYUN 1C DEB
1 32110U 99025CRC 13290.64251422  .00001879  00000-0  10931-2 0  4809
2 32110 099.5619 087.5885 0038817 143.4200 277.7598 14.09612488320823
0 FENGYUN 1C DEB
1 32110U 99025CRC 13294.27424948  .00002758  00000-0  15910-2 0  4817
2 32110 099.5618 091.4431 0038763 133.5856 347.2832 14.09623088321339
